[{"OBJECT_NAME":"DIWATA-2B","OBJECT_ID":"2018-084H","EPOCH":"2026-03-09T23:44:16.821312","MEAN_MOTION":14.99967379,"ECCENTRICITY":0.00117782,"INCLINATION":98.1039,"RA_OF_ASC_NODE":261.0381,"ARG_OF_PERICENTER":125.8755,"MEAN_ANOMALY":234.3563,"EPHEMERIS_TYPE":0,"CLASSIFICATION_TYPE":"U","NORAD_CAT_ID":43678,"ELEMENT_SET_NO":999,"REV_AT_EPOCH":40134,"BSTAR":0.00041230334,"MEAN_MOTION_DOT":5.066e-5,"MEAN_MOTION_DDOT":0},{"OBJECT_NAME":"STARLINK-36148","OBJECT_ID":"2025-293C","EPOCH":"2026-03-09T11:28:19.264800","MEAN_MOTION":14.9828441,"ECCENTRICITY":0.00029224,"INCLINATION":70.0007,"RA_OF_ASC_NODE":95.0917,"ARG_OF_PERICENTER":268.3794,"MEAN_ANOMALY":91.703,"EPHEMERIS_TYPE":0,"CLASSIFICATION_TYPE":"U","NORAD_CAT_ID":67005,"ELEMENT_SET_NO":999,"REV_AT_EPOCH":1485,"BSTAR":-0.00086095425,"MEAN_MOTION_DOT":-0.00010338,"MEAN_MOTION_DDOT":0}]
